{
  "type": "FeatureCollection",
  "features": [
    {
      "type": "Feature",
      "properties": {
        "norad_id": 66863,
        "name": "STARLINK-36134",
        "group": "last-30-days",
        "lat": -21.797532724507388,
        "lon": -118.25267169908226,
        "alt_km": 416.8947750805746,
        "timestamp": "2025-12-26T23:26:40.922152+00:00",
        "meta_object_name": "STARLINK-36134",
        "meta_object_id": "2025-281R",
        "meta_epoch": "2025-12-26T18:00:02.998944",
        "meta_mean_motion": 15.50608491,
        "meta_eccentricity": 0.0001043,
        "meta_inclination": 43.0002,
        "meta_ra_of_asc_node": 37.6597,
        "meta_arg_of_pericenter": 278.1481,
        "meta_mean_anomaly": 107.0938,
        "meta_ephemeris_type": 0,
        "meta_classification_type": "U",
        "meta_norad_cat_id": 66863,
        "meta_element_set_no": 999,
        "meta_rev_at_epoch": 364,
        "meta_bstar": -0.0015771,
        "meta_mean_motion_dot": -0.00091876,
        "meta_mean_motion_ddot": 0,
        "tle_line1": "1 66863U 25281R   25360.75003471 -.00091876  00000+0 -15771-2 0  9995",
        "tle_line2": "2 66863  43.0002  37.6597 0001043 278.1481 107.0938 15.50608491  3646"
      },
      "geometry": {
        "type": "Point",
        "coordinates": [
          -118.25267169908226,
          -21.797532724507388
        ]
      }
    },
    {
      "type": "Feature",
      "properties": {
        "norad_id": 66864,
        "name": "STARLINK-36070",
        "group": "last-30-days",
        "lat": -22.897415927532247,
        "lon": -116.719655069408,
        "alt_km": 416.6467439570679,
        "timestamp": "2025-12-26T23:26:40.922161+00:00",
        "meta_object_name": "STARLINK-36070",
        "meta_object_id": "2025-281S",
        "meta_epoch": "2025-12-26T18:00:02.998944",
        "meta_mean_motion": 15.50562945,
        "meta_eccentricity": 0.0001161,
        "meta_inclination": 43.0004,
        "meta_ra_of_asc_node": 37.6552,
        "meta_arg_of_pericenter": 256.7528,
        "meta_mean_anomaly": 130.2987,
        "meta_ephemeris_type": 0,
        "meta_classification_type": "U",
        "meta_norad_cat_id": 66864,
        "meta_element_set_no": 999,
        "meta_rev_at_epoch": 367,
        "meta_bstar": 0.00073537,
        "meta_mean_motion_dot": 0.00043011,
        "meta_mean_motion_ddot": 0,
        "tle_line1": "1 66864U 25281S   25360.75003471  .00043011  00000+0  73537-3 0  9997",
        "tle_line2": "2 66864  43.0004  37.6552 0001161 256.7528 130.2987 15.50562945  3673"
      },
      "geometry": {
        "type": "Point",
        "coordinates": [
          -116.719655069408,
          -22.897415927532247
        ]
      }
    },
    {
      "type": "Feature",
      "properties": {
        "norad_id": 66865,
        "name": "STARLINK-36117",
        "group": "last-30-days",
        "lat": -25.270035376308538,
        "lon": -113.2448683628263,
        "alt_km": 416.8439464074454,
        "timestamp": "2025-12-26T23:26:40.922170+00:00",
        "meta_object_name": "STARLINK-36117",
        "meta_object_id": "2025-281T",
        "meta_epoch": "2025-12-26T18:00:02.998944",
        "meta_mean_motion": 15.50676007,
        "meta_eccentricity": 0.0001418,
        "meta_inclination": 43.0003,
        "meta_ra_of_asc_node": 37.6462,
        "meta_arg_of_pericenter": 274.1062,
        "meta_mean_anomaly": 116.8704,
        "meta_ephemeris_type": 0,
        "meta_classification_type": "U",
        "meta_norad_cat_id": 66865,
        "meta_element_set_no": 999,
        "meta_rev_at_epoch": 364,
        "meta_bstar": -0.0031442,
        "meta_mean_motion_dot": -0.00181221,
        "meta_mean_motion_ddot": 0,
        "tle_line1": "1 66865U 25281T   25360.75003471 -.00181221  00000+0 -31442-2 0  9994",
        "tle_line2": "2 66865  43.0003  37.6462 0001418 274.1062 116.8704 15.50676007  3644"
      },
      "geometry": {
        "type": "Point",
        "coordinates": [
          -113.2448683628263,
          -25.270035376308538
        ]
      }
    },
    {
      "type": "Feature",
      "properties": {
        "norad_id": 66866,
        "name": "STARLINK-36126",
        "group": "last-30-days",
        "lat": -26.313357850813077,
        "lon": -111.63435050968124,
        "alt_km": 416.84251330115603,
        "timestamp": "2025-12-26T23:26:40.922179+00:00",
        "meta_object_name": "STARLINK-36126",
        "meta_object_id": "2025-281U",
        "meta_epoch": "2025-12-26T18:00:02.998944",
        "meta_mean_motion": 15.50564779,
        "meta_eccentricity": 0.0001118,
        "meta_inclination": 43.0002,
        "meta_ra_of_asc_node": 37.641,
        "meta_arg_of_pericenter": 252.9212,
        "meta_mean_anomaly": 139.8897,
        "meta_ephemeris_type": 0,
        "meta_classification_type": "U",
        "meta_norad_cat_id": 66866,
        "meta_element_set_no": 999,
        "meta_rev_at_epoch": 367,
        "meta_bstar": 0.00073748,
        "meta_mean_motion_dot": 0.00043139,
        "meta_mean_motion_ddot": 0,
        "tle_line1": "1 66866U 25281U   25360.75003471  .00043139  00000+0  73748-3 0  9994",
        "tle_line2": "2 66866  43.0002  37.6410 0001118 252.9212 139.8897 15.50564779  3678"
      },
      "geometry": {
        "type": "Point",
        "coordinates": [
          -111.63435050968124,
          -26.313357850813077
        ]
      }
    },
    {
      "type": "Feature",
      "properties": {
        "norad_id": 66867,
        "name": "STARLINK-36101",
        "group": "last-30-days",
        "lat": -27.474400484729333,
        "lon": -109.77219283584736,
        "alt_km": 416.8816162047733,
        "timestamp": "2025-12-26T23:26:40.922189+00:00",
        "meta_object_name": "STARLINK-36101",
        "meta_object_id": "2025-281V",
        "meta_epoch": "2025-12-26T18:00:02.998944",
        "meta_mean_motion": 15.50610163,
        "meta_eccentricity": 0.0001147,
        "meta_inclination": 43.0002,
        "meta_ra_of_asc_node": 37.6355,
        "meta_arg_of_pericenter": 242.4841,
        "meta_mean_anomaly": 152.346,
        "meta_ephemeris_type": 0,
        "meta_classification_type": "U",
        "meta_norad_cat_id": 66867,
        "meta_element_set_no": 999,
        "meta_rev_at_epoch": 347,
        "meta_bstar": -0.0017049,
        "meta_mean_motion_dot": -0.00099209,
        "meta_mean_motion_ddot": 0,
        "tle_line1": "1 66867U 25281V   25360.75003471 -.00099209  00000+0 -17049-2 0  9997",
        "tle_line2": "2 66867  43.0002  37.6355 0001147 242.4841 152.3460 15.50610163  3474"
      },
      "geometry": {
        "type": "Point",
        "coordinates": [
          -109.77219283584736,
          -27.474400484729333
        ]
      }
    },
    {
      "type": "Feature",
      "properties": {
        "norad_id": 66868,
        "name": "STARLINK-36108",
        "group": "last-30-days",
        "lat": -28.530930316826993,
        "lon": -108.00525627692065,
        "alt_km": 416.9766055893733,
        "timestamp": "2025-12-26T23:26:40.922198+00:00",
        "meta_object_name": "STARLINK-36108",
        "meta_object_id": "2025-281W",
        "meta_epoch": "2025-12-26T18:00:02.998944",
        "meta_mean_motion": 15.50689856,
        "meta_eccentricity": 0.0001265,
        "meta_inclination": 43.0002,
        "meta_ra_of_asc_node": 37.6311,
        "meta_arg_of_pericenter": 269.8635,
        "meta_mean_anomaly": 126.8128,
        "meta_ephemeris_type": 0,
        "meta_classification_type": "U",
        "meta_norad_cat_id": 66868,
        "meta_element_set_no": 999,
        "meta_rev_at_epoch": 347,
        "meta_bstar": -0.0031991,
        "meta_mean_motion_dot": -0.0018439,
        "meta_mean_motion_ddot": 0,
        "tle_line1": "1 66868U 25281W   25360.75003471 -.00184390  00000+0 -31991-2 0  9996",
        "tle_line2": "2 66868  43.0002  37.6311 0001265 269.8635 126.8128 15.50689856  3474"
      },
      "geometry": {
        "type": "Point",
        "coordinates": [
          -108.00525627692065,
          -28.530930316826993
        ]
      }
    },
    {
      "type": "Feature",
      "properties": {
        "norad_id": 66869,
        "name": "STARLINK-36092",
        "group": "last-30-days",
        "lat": -29.51948850851897,
        "lon": -106.28250413137529,
        "alt_km": 416.98875791721275,
        "timestamp": "2025-12-26T23:26:40.922208+00:00",
        "meta_object_name": "STARLINK-36092",
        "meta_object_id": "2025-281X",
        "meta_epoch": "2025-12-26T18:00:02.998944",
        "meta_mean_motion": 15.50558935,
        "meta_eccentricity": 0.0001224,
        "meta_inclination": 43.0002,
        "meta_ra_of_asc_node": 37.6263,
        "meta_arg_of_pericenter": 254.8283,
        "meta_mean_anomaly": 143.7158,
        "meta_ephemeris_type": 0,
        "meta_classification_type": "U",
        "meta_norad_cat_id": 66869,
        "meta_element_set_no": 999,
        "meta_rev_at_epoch": 367,
        "meta_bstar": 0.0007612,
        "meta_mean_motion_dot": 0.00044536,
        "meta_mean_motion_ddot": 0,
        "tle_line1": "1 66869U 25281X   25360.75003471  .00044536  00000+0  76120-3 0  9996",
        "tle_line2": "2 66869  43.0002  37.6263 0001224 254.8283 143.7158 15.50558935  3675"
      },
      "geometry": {
        "type": "Point",
        "coordinates": [
          -106.28250413137529,
          -29.51948850851897
        ]
      }
    }
  ]
}